{
    "links": {
        "self": "http://www.neowsapp.com/rest/v1/neo/3789682?api_key=iIulBulltgU6a56xZRHN4H3l9WmuAYTsLGpBGhQ2"
    },
    "id": "3789682",
    "neo_reference_id": "3789682",
    "name": "(2017 WM15)",
    "designation": "2017 WM15",
    "nasa_jpl_url": "http://ssd.jpl.nasa.gov/sbdb.cgi?sstr=3789682",
    "absolute_magnitude_h": 23.5,
    "estimated_diameter": {
        "kilometers": {
            "estimated_diameter_min": 0.0530340723,
            "estimated_diameter_max": 0.1185877909
        },
        "meters": {
            "estimated_diameter_min": 53.0340723319,
            "estimated_diameter_max": 118.5877908577
        },
        "miles": {
            "estimated_diameter_min": 0.0329538346,
            "estimated_diameter_max": 0.0736870142
        },
        "feet": {
            "estimated_diameter_min": 173.9963058693,
            "estimated_diameter_max": 389.0675677576
        }
    },
    "is_potentially_hazardous_asteroid": false,
    "close_approach_data": [
        {
            "close_approach_date": "2017-11-16",
            "close_approach_date_full": "2017-Nov-16 10:32",
            "epoch_date_close_approach": 1510828320000,
            "relative_velocity": {
                "kilometers_per_second": "8.1458528664",
                "kilometers_per_hour": "29325.0703190253",
                "miles_per_hour": "18221.4582768411"
            },
            "miss_distance": {
                "astronomical": "0.100790518",
                "lunar": "39.207511502",
                "kilometers": "15078046.80899666",
                "miles": "9369063.837847508"
            },
            "orbiting_body": "Earth"
        }
    ],
    "orbital_data": {
        "orbit_id": "3",
        "orbit_determination_date": "2017-12-16 06:46:43",
        "first_observation_date": "2017-11-24",
        "last_observation_date": "2017-12-15",
        "data_arc_in_days": 21,
        "observations_used": 28,
        "orbit_uncertainty": "7",
        "minimum_orbit_intersection": ".096943",
        "jupiter_tisserand_invariant": "3.218",
        "epoch_osculation": "2459000.5",
        "eccentricity": ".5797027542633035",
        "semi_major_axis": "2.468037554053946",
        "inclination": "8.779042287203746",
        "ascending_node_longitude": "84.94140560012441",
        "orbital_period": "1416.204833925261",
        "perihelion_distance": "1.037309386343607",
        "perihelion_argument": "316.0808811106962",
        "aphelion_distance": "3.898765721764286",
        "perihelion_time": "2459476.723859048559",
        "mean_anomaly": "238.9436491455098",
        "mean_motion": ".2542005163209312",
        "equinox": "J2000",
        "orbit_class": {
            "orbit_class_type": "AMO",
            "orbit_class_description": "Near-Earth asteroid orbits similar to that of 1221 Amor",
            "orbit_class_range": "1.017 AU < q (perihelion) < 1.3 AU"
        }
    },
    "is_sentry_object": false
}